     2.100          NAVIGATION                              RINEX VERSION / TYPE
fic2rin                                 11/13/2013 00:18:30 PGM / RUN BY / DATE
                                                            END OF HEADER
17 13 11 12  2  0  0.0 -.398992560804D-04 -.352429196937D-11  .000000000000D+00
     .350000000000D+02 -.418750000000D+02  .451018786743D-08 -.269462466543D+01
    -.211410224438D-05  .872065033764D-02  .538863241673D-05  .515370159149D+04
     .180000000000D+06  .670552253723D-07  .803439912212D+00 -.115483999252D-06
     .966720176713D+00  .277781250000D+03 -.218379443388D+01 -.805497837932D-08
     .467876631797D-10  .100000000000D+01  .176600000000D+04  .000000000000D+00
     .240000000000D+01  .000000000000D+00 -.107102096081D-07  .350000000000D+02
     .172806000000D+06  .400000000000D+01
18 13 11 12  2  0  0.0  .284450594336D-03  .204636307899D-11  .000000000000D+00
     .540000000000D+02  .753750000000D+02  .543415492579D-08 -.115944268136D+01
     .420026481152D-05  .145745518385D-01  .834465026855D-05  .515365096855D+04
     .180000000000D+06  .206753611565D-06  .285273963537D+01  .340864062309D-06
     .926888084632D+00  .200468750000D+03 -.207264911285D+01 -.860035823944D-08
     .300369654459D-09  .100000000000D+01  .176600000000D+04  .000000000000D+00
     .240000000000D+01  .000000000000D+00 -.111758708954D-07  .540000000000D+02
     .172806000000D+06  .400000000000D+01
19 13 11 12  2  0  0.0 -.417936593294D-03 -.261479726760D-11  .000000000000D+00
     .270000000000D+02 -.402187500000D+02  .468626663039D-08  .272340712514D+01
    -.211223959923D-05  .959820754360D-02  .520423054695D-05  .515375419998D+04
     .180000000000D+06 -.689178705215D-07  .854877075942D+00 -.577419996262D-07
     .963860376676D+00  .282625000000D+03  .397084915952D+00 -.820998483597D-08
    -.664313385605D-10  .100000000000D+01  .176600000000D+04  .000000000000D+00
     .240000000000D+01  .000000000000D+00 -.149011611938D-07  .270000000000D+02
     .172806000000D+06  .400000000000D+01
20 13 11 12  2  0  0.0  .136235263199D-03  .284217094304D-11  .000000000000D+00
     .940000000000D+02  .617812500000D+02  .542986903298D-08 -.681017028853D+00
     .329129397869D-05  .577420066111D-02  .922568142414D-05  .515364360046D+04
     .180000000000D+06 -.540167093277D-07  .279949437804D+01  .372529029846D-07
     .927739099189D+00  .188718750000D+03  .129090026736D+01 -.855178478759D-08
     .282868925483D-09  .100000000000D+01  .176600000000D+04  .000000000000D+00
     .240000000000D+01  .000000000000D+00 -.791624188423D-08  .940000000000D+02
     .172806000000D+06  .400000000000D+01
21 13 11 12  2  0  0.0 -.328059308231D-03 -.181898940355D-11  .000000000000D+00
     .270000000000D+02 -.260000000000D+02  .518450166959D-08 -.134181978338D+00
    -.126287341118D-05  .206725802273D-01  .108871608973D-04  .515360741043D+04
     .180000000000D+06 -.912696123123D-07  .180633644381D+01  .331550836563D-06
     .931566518593D+00  .158468750000D+03 -.209241536705D+01 -.871214861025D-08
    -.122147945095D-09  .100000000000D+01  .176600000000D+04  .000000000000D+00
     .240000000000D+01  .000000000000D+00 -.111758708954D-07  .270000000000D+02
     .172806000000D+06  .400000000000D+01
22 13 11 12  2  0  0.0  .194634776562D-03  .216004991671D-11  .000000000000D+00
     .500000000000D+02  .777187500000D+02  .542451166697D-08 -.172572148579D+01
     .404193997383D-05  .671205809340D-02  .858679413795D-05  .515364606476D+04
     .180000000000D+06  .180676579475D-06  .285501032415D+01  .204890966415D-07
     .924649187990D+00  .191500000000D+03 -.204505708810D+01 -.845570935709D-08
     .352157525917D-09  .100000000000D+01  .176600000000D+04  .000000000000D+00
     .240000000000D+01  .000000000000D+00 -.172294676304D-07  .500000000000D+02
     .172806000000D+06  .400000000000D+01
23 13 11 12  2  0  0.0  .309827737510D-04 -.341060513165D-11  .000000000000D+00
     .840000000000D+02  .700000000000D+01  .512842790532D-08  .233289293353D+01
     .346451997757D-06  .884807331022D-02  .441819429398D-05  .515363076591D+04
     .180000000000D+06 -.175088644028D-06 -.236821833531D+01  .111758708954D-07
     .953976422296D+00  .294812500000D+03 -.281012447184D+01 -.846285251178D-08
    -.112504686272D-09  .100000000000D+01  .176600000000D+04  .000000000000D+00
     .240000000000D+01  .000000000000D+00 -.200234353542D-07  .840000000000D+02
     .172806000000D+06  .400000000000D+01
24 13 11 12  2  0  0.0 -.172085128725D-04 -.682121026330D-12  .000000000000D+00
     .750000000000D+02 -.261562500000D+02  .459804867004D-08  .182884858062D+01
    -.131130218506D-05  .130861916114D-02  .891089439392D-05  .515364962196D+04
     .180000000000D+06  .465661287308D-07 -.134104847738D+01  .838190317154D-07
     .957933868785D+00  .205062500000D+03  .757650890858D-01 -.816105422638D-08
    -.261082303697D-09  .100000000000D+01  .176600000000D+04  .000000000000D+00
     .240000000000D+01  .000000000000D+00  .279396772385D-08  .750000000000D+02
     .172806000000D+06  .400000000000D+01
25 13 11 12  2  0  0.0  .165874138474D-03  .329691829393D-11  .000000000000D+00
     .700000000000D+02  .325937500000D+02  .424053377811D-08 -.490322707977D+00
     .156275928020D-05  .277951126918D-02  .804848968983D-05  .515370013809D+04
     .180000000000D+06  .800937414169D-07 -.289377598699D+00  .521540641785D-07
     .974868650895D+00  .231375000000D+03  .686347040675D+00 -.807033616189D-08
     .265725354242D-09  .100000000000D+01  .176600000000D+04  .000000000000D+00
     .240000000000D+01  .000000000000D+00  .558793544769D-08  .700000000000D+02
     .172806000000D+06  .400000000000D+01
26 13 11 12  2  0  0.0  .251648947597D-03 -.102318153949D-10  .000000000000D+00
     .101000000000D+03 -.318750000000D+01  .435410993758D-08  .233333681067D+01
    -.502914190292D-06  .211327925790D-01  .481866300106D-05  .515368242264D+04
     .180000000000D+06  .115483999252D-06 -.228397767380D+01 -.298023223877D-06
     .977132916000D+00  .291875000000D+03  .125445909650D+01 -.783282626865D-08
    -.221437795202D-09  .100000000000D+01  .176600000000D+04  .000000000000D+00
     .240000000000D+01  .000000000000D+00 -.605359673500D-08  .101000000000D+03
     .172806000000D+06  .400000000000D+01
27 13 11 12  2  0  0.0 -.572381541133D-04 -.352429196937D-11  .000000000000D+00
     .660000000000D+02 -.316875000000D+02  .479162816197D-08  .300102603993D+01
    -.160001218319D-05  .453468761407D-03  .505894422531D-05  .515366186142D+04
     .180000000000D+06  .484287738800D-07  .759147858355D+00  .558793544769D-07
     .961390447234D+00  .283062500000D+03  .712755750487D+00 -.836534845034D-08
     .857178562071D-11  .100000000000D+01  .176600000000D+04  .000000000000D+00
     .240000000000D+01  .000000000000D+00  .186264514923D-08  .660000000000D+02
     .172806000000D+06  .400000000000D+01
28 13 11 12  2  0  0.0  .308056827635D-03  .306954461848D-11  .000000000000D+00
     .119000000000D+03  .293750000000D+02  .384587448182D-08 -.189297968933D+01
     .162795186043D-05  .190133928554D-01  .774487853050D-05  .515365659332D+04
     .180000000000D+06  .342726707458D-06 -.224730881583D+00  .145286321640D-06
     .985230973636D+00  .240781250000D+03 -.175587755389D+01 -.760103089916D-08
     .275011455331D-09  .100000000000D+01  .176600000000D+04  .000000000000D+00
     .240000000000D+01  .000000000000D+00 -.107102096081D-07  .119000000000D+03
     .172806000000D+06  .400000000000D+01
29 13 11 12  2  0  0.0  .486345030367D-03  .306954461848D-11  .000000000000D+00
     .720000000000D+02 -.395937500000D+02  .466519432407D-08  .252199201978D+00
    -.204704701900D-05  .140663387720D-02  .572390854359D-05  .515354427528D+04
     .180000000000D+06 -.335276126862D-07  .812338465455D+00 -.745058059692D-08
     .967394271809D+00  .274031250000D+03 -.104081672434D+01 -.828391648694D-08
    -.885751180806D-10  .100000000000D+01  .176600000000D+04  .000000000000D+00
     .240000000000D+01  .000000000000D+00 -.931322574615D-08  .720000000000D+02
     .172806000000D+06  .400000000000D+01
31 13 11 12  2  0  0.0  .329528469592D-03  .682121026330D-12  .000000000000D+00
     .860000000000D+02 -.374375000000D+02  .403231081907D-08  .798311197917D+00
    -.211969017982D-05  .810119113885D-02  .102035701275D-04  .515371250534D+04
     .180000000000D+06  .111758708954D-06 -.130441499862D+01 -.141561031342D-06
     .979458269637D+00  .190812500000D+03 -.723100487489D+00 -.793175896103D-08
    -.311084386485D-09  .100000000000D+01  .176600000000D+04  .000000000000D+00
     .240000000000D+01  .000000000000D+00 -.130385160446D-07  .860000000000D+02
     .172806000000D+06  .400000000000D+01
32 13 11 12  2  0  0.0 -.530513003469D-03  .454747350886D-11  .000000000000D+00
     .930000000000D+02  .717812500000D+02  .495377777330D-08  .127213267272D+01
     .372715294361D-05  .115943920100D-01  .822357833385D-05  .515355595970D+04
     .180000000000D+06  .122934579849D-06  .294258929011D+01  .137835741043D-06
     .948857278411D+00  .215562500000D+03 -.246196931022D+00 -.825462955274D-08
     .190365072327D-09  .100000000000D+01  .176600000000D+04  .000000000000D+00
     .240000000000D+01  .000000000000D+00 -.325962901115D-08  .930000000000D+02
     .172806000000D+06  .400000000000D+01
12 13 11 12  1 59 44.0  .167555641383D-03  .227373675443D-11  .000000000000D+00
     .500000000000D+01  .298125000000D+02  .403302513454D-08  .422756467195D+00
     .152364373207D-05  .455412385054D-02  .784918665886D-05  .515372975731D+04
     .179984000000D+06  .106170773506D-06 -.249217934390D+00  .121071934700D-06
     .986095588942D+00  .240718750000D+03  .331385074833D+00 -.793711632704D-08
     .272154193457D-09  .100000000000D+01  .176600000000D+04  .000000000000D+00
     .240000000000D+01  .000000000000D+00 -.121071934700D-07  .500000000000D+01
     .175956000000D+06  .400000000000D+01
